{
    "links": {
        "self": "http://www.neowsapp.com/rest/v1/neo/3825156?api_key=iIulBulltgU6a56xZRHN4H3l9WmuAYTsLGpBGhQ2"
    },
    "id": "3825156",
    "neo_reference_id": "3825156",
    "name": "(2018 LV3)",
    "designation": "2018 LV3",
    "nasa_jpl_url": "http://ssd.jpl.nasa.gov/sbdb.cgi?sstr=3825156",
    "absolute_magnitude_h": 26.5,
    "estimated_diameter": {
        "kilometers": {
            "estimated_diameter_min": 0.0133215567,
            "estimated_diameter_max": 0.0297879063
        },
        "meters": {
            "estimated_diameter_min": 13.3215566698,
            "estimated_diameter_max": 29.7879062798
        },
        "miles": {
            "estimated_diameter_min": 0.008277629,
            "estimated_diameter_max": 0.0185093411
        },
        "feet": {
            "estimated_diameter_min": 43.7058959846,
            "estimated_diameter_max": 97.7293544391
        }
    },
    "is_potentially_hazardous_asteroid": false,
    "close_approach_data": [
        {
            "close_approach_date": "2018-06-15",
            "close_approach_date_full": "2018-Jun-15 02:31",
            "epoch_date_close_approach": 1529029860000,
            "relative_velocity": {
                "kilometers_per_second": "11.1252206218",
                "kilometers_per_hour": "40050.7942383904",
                "miles_per_hour": "24886.0060088487"
            },
            "miss_distance": {
                "astronomical": "0.0022050656",
                "lunar": "0.8577705184",
                "kilometers": "329873.116970272",
                "miles": "204973.6501308736"
            },
            "orbiting_body": "Earth"
        },
        {
            "close_approach_date": "2018-06-15",
            "close_approach_date_full": "2018-Jun-15 06:48",
            "epoch_date_close_approach": 1529045280000,
            "relative_velocity": {
                "kilometers_per_second": "11.9570210484",
                "kilometers_per_hour": "43045.2757742994",
                "miles_per_hour": "26746.6603832029"
            },
            "miss_distance": {
                "astronomical": "0.0038733241",
                "lunar": "1.5067230749",
                "kilometers": "579441.035179667",
                "miles": "360047.9636147246"
            },
            "orbiting_body": "Moon"
        }
    ],
    "orbital_data": {
        "orbit_id": "4",
        "orbit_determination_date": "2018-06-26 06:22:07",
        "first_observation_date": "2018-06-11",
        "last_observation_date": "2018-06-14",
        "data_arc_in_days": 3,
        "observations_used": 38,
        "orbit_uncertainty": "7",
        "minimum_orbit_intersection": ".00206287",
        "jupiter_tisserand_invariant": "3.641",
        "epoch_osculation": "2459000.5",
        "eccentricity": ".5255991400333668",
        "semi_major_axis": "2.002165518699203",
        "inclination": "8.996787509033092",
        "ascending_node_longitude": "83.08497197632755",
        "orbital_period": "1034.780874952842",
        "perihelion_distance": ".9498290438664422",
        "perihelion_argument": "216.6208731610364",
        "aphelion_distance": "3.054501993531964",
        "perihelion_time": "2459348.249994126814",
        "mean_anomaly": "239.0178665687474",
        "mean_motion": ".3478997425579655",
        "equinox": "J2000",
        "orbit_class": {
            "orbit_class_type": "APO",
            "orbit_class_description": "Near-Earth asteroid orbits which cross the Earth’s orbit similar to that of 1862 Apollo",
            "orbit_class_range": "a (semi-major axis) > 1.0 AU; q (perihelion) < 1.017 AU"
        }
    },
    "is_sentry_object": false
}